CCSDS_OMM_VERS = 2.0
CREATION_DATE  = 
ORIGINATOR     = 

OBJECT_NAME    = STARLINK-35775
OBJECT_ID      = 2025-294J
CENTER_NAME    = EARTH
REF_FRAME      = TEME
TIME_SYSTEM    = UTC
MEAN_ELEMENT_THEORY = SGP/SGP4

EPOCH          = 2025-12-22T20:00:01.999008
MEAN_MOTION    = 15.81236907
ECCENTRICITY   = .0001385
INCLINATION    = 43.0001
RA_OF_ASC_NODE = 120.3477
ARG_OF_PERICENTER = 279.5206
MEAN_ANOMALY   = 323.9884

EPHEMERIS_TYPE = 0
CLASSIFICATION_TYPE = U
NORAD_CAT_ID   = 67038
ELEMENT_SET_NO = 999
REV_AT_EPOCH   = 184
BSTAR          = -.10648E-1
MEAN_MOTION_DOT = -.1888772E-1
MEAN_MOTION_DDOT = 0

CCSDS_OMM_VERS = 2.0
CREATION_DATE  = 
ORIGINATOR     = 

OBJECT_NAME    = STARLINK-35705
OBJECT_ID      = 2025-294K
CENTER_NAME    = EARTH
REF_FRAME      = TEME
TIME_SYSTEM    = UTC
MEAN_ELEMENT_THEORY = SGP/SGP4

EPOCH          = 2025-12-22T20:00:01.999008
MEAN_MOTION    = 15.81217516
ECCENTRICITY   = .0001413
INCLINATION    = 43.0001
RA_OF_ASC_NODE = 120.3370
ARG_OF_PERICENTER = 278.2854
MEAN_ANOMALY   = 329.6035

EPHEMERIS_TYPE = 0
CLASSIFICATION_TYPE = U
NORAD_CAT_ID   = 67039
ELEMENT_SET_NO = 999
REV_AT_EPOCH   = 173
BSTAR          = -.10641E-1
MEAN_MOTION_DOT = -.188626E-1
MEAN_MOTION_DDOT = 0

CCSDS_OMM_VERS = 2.0
CREATION_DATE  = 
ORIGINATOR     = 

OBJECT_NAME    = STARLINK-35786
OBJECT_ID      = 2025-294L
CENTER_NAME    = EARTH
REF_FRAME      = TEME
TIME_SYSTEM    = UTC
MEAN_ELEMENT_THEORY = SGP/SGP4

EPOCH          = 2025-12-22T20:00:01.999008
MEAN_MOTION    = 15.81226423
ECCENTRICITY   = .0001457
INCLINATION    = 43.0003
RA_OF_ASC_NODE = 120.3425
ARG_OF_PERICENTER = 282.7639
MEAN_ANOMALY   = 323.0188

EPHEMERIS_TYPE = 0
CLASSIFICATION_TYPE = U
NORAD_CAT_ID   = 67040
ELEMENT_SET_NO = 999
REV_AT_EPOCH   = 173
BSTAR          = -.10669E-1
MEAN_MOTION_DOT = -.1891299E-1
MEAN_MOTION_DDOT = 0

CCSDS_OMM_VERS = 2.0
CREATION_DATE  = 
ORIGINATOR     = 

OBJECT_NAME    = STARLINK-35765
OBJECT_ID      = 2025-294M
CENTER_NAME    = EARTH
REF_FRAME      = TEME
TIME_SYSTEM    = UTC
MEAN_ELEMENT_THEORY = SGP/SGP4

EPOCH          = 2025-12-22T20:00:01.999008
MEAN_MOTION    = 15.81210756
ECCENTRICITY   = .0001503
INCLINATION    = 43.0002
RA_OF_ASC_NODE = 120.3318
ARG_OF_PERICENTER = 282.6006
MEAN_ANOMALY   = 327.3280

EPHEMERIS_TYPE = 0
CLASSIFICATION_TYPE = U
NORAD_CAT_ID   = 67041
ELEMENT_SET_NO = 999
REV_AT_EPOCH   = 173
BSTAR          = -.10642E-1
MEAN_MOTION_DOT = -.1885965E-1
MEAN_MOTION_DDOT = 0

CCSDS_OMM_VERS = 2.0
CREATION_DATE  = 
ORIGINATOR     = 

OBJECT_NAME    = STARLINK-35773
OBJECT_ID      = 2025-294N
CENTER_NAME    = EARTH
REF_FRAME      = TEME
TIME_SYSTEM    = UTC
MEAN_ELEMENT_THEORY = SGP/SGP4

EPOCH          = 2025-12-22T20:00:01.999008
MEAN_MOTION    = 15.81206659
ECCENTRICITY   = .0001371
INCLINATION    = 43.0000
RA_OF_ASC_NODE = 120.3262
ARG_OF_PERICENTER = 276.9466
MEAN_ANOMALY   = 335.1872

EPHEMERIS_TYPE = 0
CLASSIFICATION_TYPE = U
NORAD_CAT_ID   = 67042
ELEMENT_SET_NO = 999
REV_AT_EPOCH   = 192
BSTAR          = -.10709E-1
MEAN_MOTION_DOT = -.1895767E-1
MEAN_MOTION_DDOT = 0

CCSDS_OMM_VERS = 2.0
CREATION_DATE  = 
ORIGINATOR     = 

OBJECT_NAME    = STARLINK-35901
OBJECT_ID      = 2025-294P
CENTER_NAME    = EARTH
REF_FRAME      = TEME
TIME_SYSTEM    = UTC
MEAN_ELEMENT_THEORY = SGP/SGP4

EPOCH          = 2025-12-22T20:00:01.999008
MEAN_MOTION    = 15.81192653
ECCENTRICITY   = .0001491
INCLINATION    = 43.0000
RA_OF_ASC_NODE = 120.3209
ARG_OF_PERICENTER = 282.5148
MEAN_ANOMALY   = 331.8052

EPHEMERIS_TYPE = 0
CLASSIFICATION_TYPE = U
NORAD_CAT_ID   = 67043
ELEMENT_SET_NO = 999
REV_AT_EPOCH   = 192
BSTAR          = -.10681E-1
MEAN_MOTION_DOT = -.1890511E-1
MEAN_MOTION_DDOT = 0

CCSDS_OMM_VERS = 2.0
CREATION_DATE  = 
ORIGINATOR     = 

OBJECT_NAME    = STARLINK-35884
OBJECT_ID      = 2025-294Q
CENTER_NAME    = EARTH
REF_FRAME      = TEME
TIME_SYSTEM    = UTC
MEAN_ELEMENT_THEORY = SGP/SGP4

EPOCH          = 2025-12-22T20:00:01.999008
MEAN_MOTION    = 15.81185432
ECCENTRICITY   = .000145
INCLINATION    = 43.0001
RA_OF_ASC_NODE = 120.3154
ARG_OF_PERICENTER = 281.8930
MEAN_ANOMALY   = 334.5557

EPHEMERIS_TYPE = 0
CLASSIFICATION_TYPE = U
NORAD_CAT_ID   = 67044
ELEMENT_SET_NO = 999
REV_AT_EPOCH   = 192
BSTAR          = -.10688E-1
MEAN_MOTION_DOT = -.1891045E-1
MEAN_MOTION_DDOT = 0

CCSDS_OMM_VERS = 2.0
CREATION_DATE  = 
ORIGINATOR     = 

OBJECT_NAME    = STARLINK-35891
OBJECT_ID      = 2025-294R
CENTER_NAME    = EARTH
REF_FRAME      = TEME
TIME_SYSTEM    = UTC
MEAN_ELEMENT_THEORY = SGP/SGP4

EPOCH          = 2025-12-22T20:00:01.999008
MEAN_MOTION    = 15.81163874
ECCENTRICITY   = .000145
INCLINATION    = 43.0001
RA_OF_ASC_NODE = 120.3091
ARG_OF_PERICENTER = 282.7632
MEAN_ANOMALY   = 336.1687

EPHEMERIS_TYPE = 0
CLASSIFICATION_TYPE = U
NORAD_CAT_ID   = 67045
ELEMENT_SET_NO = 999
REV_AT_EPOCH   = 184
BSTAR          = -.10709E-1
MEAN_MOTION_DOT = -.1892577E-1
MEAN_MOTION_DDOT = 0

CCSDS_OMM_VERS = 2.0
CREATION_DATE  = 
ORIGINATOR     = 

OBJECT_NAME    = STARLINK-35721
OBJECT_ID      = 2025-294S
CENTER_NAME    = EARTH
REF_FRAME      = TEME
TIME_SYSTEM    = UTC
MEAN_ELEMENT_THEORY = SGP/SGP4

EPOCH          = 2025-12-22T20:00:01.999008
MEAN_MOTION    = 15.81148701
ECCENTRICITY   = .0001364
INCLINATION    = 43.0004
RA_OF_ASC_NODE = 120.3034
ARG_OF_PERICENTER = 281.9412
MEAN_ANOMALY   = 339.2657

EPHEMERIS_TYPE = 0
CLASSIFICATION_TYPE = U
NORAD_CAT_ID   = 67046
ELEMENT_SET_NO = 999
REV_AT_EPOCH   = 192
BSTAR          = -.10701E-1
MEAN_MOTION_DOT = -.1890044E-1
MEAN_MOTION_DDOT = 0

CCSDS_OMM_VERS = 2.0
CREATION_DATE  = 
ORIGINATOR     = 

OBJECT_NAME    = STARLINK-35779
OBJECT_ID      = 2025-294T
CENTER_NAME    = EARTH
REF_FRAME      = TEME
TIME_SYSTEM    = UTC
MEAN_ELEMENT_THEORY = SGP/SGP4

EPOCH          = 2025-12-22T20:00:01.999008
MEAN_MOTION    = 15.81132612
ECCENTRICITY   = .0001279
INCLINATION    = 43.0001
RA_OF_ASC_NODE = 120.2974
ARG_OF_PERICENTER = 273.4281
MEAN_ANOMALY   = 350.2572

EPHEMERIS_TYPE = 0
CLASSIFICATION_TYPE = U
NORAD_CAT_ID   = 67047
ELEMENT_SET_NO = 999
REV_AT_EPOCH   = 173
BSTAR          = -.10734E-1
MEAN_MOTION_DOT = -.1893871E-1
MEAN_MOTION_DDOT = 0

CCSDS_OMM_VERS = 2.0
CREATION_DATE  = 
ORIGINATOR     = 

OBJECT_NAME    = STARLINK-35905
OBJECT_ID      = 2025-294U
CENTER_NAME    = EARTH
REF_FRAME      = TEME
TIME_SYSTEM    = UTC
MEAN_ELEMENT_THEORY = SGP/SGP4

EPOCH          = 2025-12-22T20:00:01.999008
MEAN_MOTION    = 15.81126423
ECCENTRICITY   = .0001205
INCLINATION    = 43.0004
RA_OF_ASC_NODE = 120.2925
ARG_OF_PERICENTER = 274.1899
MEAN_ANOMALY   = 351.4700

EPHEMERIS_TYPE = 0
CLASSIFICATION_TYPE = U
NORAD_CAT_ID   = 67048
ELEMENT_SET_NO = 999
REV_AT_EPOCH   = 184
BSTAR          = -.10706E-1
MEAN_MOTION_DOT = -.1889011E-1
MEAN_MOTION_DDOT = 0

CCSDS_OMM_VERS = 2.0
CREATION_DATE  = 
ORIGINATOR     = 

OBJECT_NAME    = STARLINK-35877
OBJECT_ID      = 2025-294V
CENTER_NAME    = EARTH
REF_FRAME      = TEME
TIME_SYSTEM    = UTC
MEAN_ELEMENT_THEORY = SGP/SGP4

EPOCH          = 2025-12-22T20:00:01.999008
MEAN_MOTION    = 15.81105953
ECCENTRICITY   = .0001354
INCLINATION    = 43.0005
RA_OF_ASC_NODE = 120.2864
ARG_OF_PERICENTER = 277.3691
MEAN_ANOMALY   = 350.6833

EPHEMERIS_TYPE = 0
CLASSIFICATION_TYPE = U
NORAD_CAT_ID   = 67049
ELEMENT_SET_NO = 999
REV_AT_EPOCH   = 192
BSTAR          = -.10717E-1
MEAN_MOTION_DOT = -.1889289E-1
MEAN_MOTION_DDOT = 0

