STARLINK-35775          
1 67038U 25294J   25356.83335647 -.01888772  00000+0 -10648-1 0  9998
2 67038  43.0001 120.3477 0001385 279.5206 323.9884 15.81236907  1848
STARLINK-35705          
1 67039U 25294K   25356.83335647 -.01886260  00000+0 -10641-1 0  9992
2 67039  43.0001 120.3370 0001413 278.2854 329.6035 15.81217516  1732
STARLINK-35786          
1 67040U 25294L   25356.83335647 -.01891299  00000+0 -10669-1 0  9992
2 67040  43.0003 120.3425 0001457 282.7639 323.0188 15.81226423  1730
STARLINK-35765          
1 67041U 25294M   25356.83335647 -.01885965  00000+0 -10642-1 0  9997
2 67041  43.0002 120.3318 0001503 282.6006 327.3280 15.81210756  1732
STARLINK-35773          
1 67042U 25294N   25356.83335647 -.01895767  00000+0 -10709-1 0  9993
2 67042  43.0000 120.3262 0001371 276.9466 335.1872 15.81206659  1920
STARLINK-35901          
1 67043U 25294P   25356.83335647 -.01890511  00000+0 -10681-1 0  9995
2 67043  43.0000 120.3209 0001491 282.5148 331.8052 15.81192653  1926
STARLINK-35884          
1 67044U 25294Q   25356.83335647 -.01891045  00000+0 -10688-1 0  9996
2 67044  43.0001 120.3154 0001450 281.8930 334.5557 15.81185432  1920
STARLINK-35891          
1 67045U 25294R   25356.83335647 -.01892577  00000+0 -10709-1 0  9992
2 67045  43.0001 120.3091 0001450 282.7632 336.1687 15.81163874  1849
STARLINK-35721          
1 67046U 25294S   25356.83335647 -.01890044  00000+0 -10701-1 0  9992
2 67046  43.0004 120.3034 0001364 281.9412 339.2657 15.81148701  1923
STARLINK-35779          
1 67047U 25294T   25356.83335647 -.01893871  00000+0 -10734-1 0  9990
2 67047  43.0001 120.2974 0001279 273.4281 350.2572 15.81132612  1730
STARLINK-35905          
1 67048U 25294U   25356.83335647 -.01889011  00000+0 -10706-1 0  9991
2 67048  43.0004 120.2925 0001205 274.1899 351.4700 15.81126423  1843
STARLINK-35877          
1 67049U 25294V   25356.83335647 -.01889289  00000+0 -10717-1 0  9991
2 67049  43.0005 120.2864 0001354 277.3691 350.6833 15.81105953  1929
